[{"OBJECT_NAME":"DELTA 2 R/B","OBJECT_ID":"1999-041E","EPOCH":"2026-03-03T01:41:23.444736","MEAN_MOTION":14.11813362,"ECCENTRICITY":0.05023561,"INCLINATION":51.7651,"RA_OF_ASC_NODE":327.7179,"ARG_OF_PERICENTER":328.8923,"MEAN_ANOMALY":28.3138,"EPHEMERIS_TYPE":0,"CLASSIFICATION_TYPE":"U","NORAD_CAT_ID":25876,"ELEMENT_SET_NO":999,"REV_AT_EPOCH":36209,"BSTAR":0.00031033897,"MEAN_MOTION_DOT":1.695e-5,"MEAN_MOTION_DDOT":0},{"OBJECT_NAME":"HELIOS 1B","OBJECT_ID":"1999-064A","EPOCH":"2026-03-03T17:27:58.298976","MEAN_MOTION":14.87668345,"ECCENTRICITY":0.00025021,"INCLINATION":98.1703,"RA_OF_ASC_NODE":324.7958,"ARG_OF_PERICENTER":83.0992,"MEAN_ANOMALY":277.0507,"EPHEMERIS_TYPE":0,"CLASSIFICATION_TYPE":"U","NORAD_CAT_ID":25977,"ELEMENT_SET_NO":999,"REV_AT_EPOCH":68437,"BSTAR":0.00030561719,"MEAN_MOTION_DOT":2.724e-5,"MEAN_MOTION_DDOT":0},{"OBJECT_NAME":"TERRA","OBJECT_ID":"1999-068A","EPOCH":"2026-03-03T23:22:08.054976","MEAN_MOTION":14.61007965,"ECCENTRICITY":0.00023234,"INCLINATION":97.9604,"RA_OF_ASC_NODE":116.6265,"ARG_OF_PERICENTER":165.2359,"MEAN_ANOMALY":315.5211,"EPHEMERIS_TYPE":0,"CLASSIFICATION_TYPE":"U","NORAD_CAT_ID":25994,"ELEMENT_SET_NO":999,"REV_AT_EPOCH":39424,"BSTAR":0.00014332092,"MEAN_MOTION_DOT":6.59e-6,"MEAN_MOTION_DDOT":0},{"OBJECT_NAME":"SL-16 R/B","OBJECT_ID":"2000-006B","EPOCH":"2026-03-03T12:18:04.313952","MEAN_MOTION":14.15824433,"ECCENTRICITY":0.0017215,"INCLINATION":71.0014,"RA_OF_ASC_NODE":110.8267,"ARG_OF_PERICENTER":198.7334,"MEAN_ANOMALY":161.3158,"EPHEMERIS_TYPE":0,"CLASSIFICATION_TYPE":"U","NORAD_CAT_ID":26070,"ELEMENT_SET_NO":999,"REV_AT_EPOCH":34768,"BSTAR":0.00014259,"MEAN_MOTION_DOT":2.33e-6,"MEAN_MOTION_DDOT":0},{"OBJECT_NAME":"TITAN 4B R/B","OBJECT_ID":"2000-047B","EPOCH":"2026-03-03T23:57:28.027584","MEAN_MOTION":15.09495855,"ECCENTRICITY":0.00380048,"INCLINATION":67.9885,"RA_OF_ASC_NODE":56.5132,"ARG_OF_PERICENTER":42.139,"MEAN_ANOMALY":318.267,"EPHEMERIS_TYPE":0,"CLASSIFICATION_TYPE":"U","NORAD_CAT_ID":26474,"ELEMENT_SET_NO":999,"REV_AT_EPOCH":39205,"BSTAR":0.00037282461,"MEAN_MOTION_DOT":5.959e-5,"MEAN_MOTION_DDOT":0},{"OBJECT_NAME":"ENVISAT","OBJECT_ID":"2002-009A","EPOCH":"2026-03-03T20:03:02.002176","MEAN_MOTION":14.39034374,"ECCENTRICITY":0.00013326,"INCLINATION":98.3719,"RA_OF_ASC_NODE":16.5725,"ARG_OF_PERICENTER":84.6244,"MEAN_ANOMALY":308.1164,"EPHEMERIS_TYPE":0,"CLASSIFICATION_TYPE":"U","NORAD_CAT_ID":27386,"ELEMENT_SET_NO":999,"REV_AT_EPOCH":25833,"BSTAR":7.0207056e-5,"MEAN_MOTION_DOT":1.74e-6,"MEAN_MOTION_DDOT":0},{"OBJECT_NAME":"IDEFIX & ARIANE 42P R/B","OBJECT_ID":"2002-021B","EPOCH":"2026-03-03T19:58:33.899520","MEAN_MOTION":14.31021372,"ECCENTRICITY":0.00112416,"INCLINATION":98.5864,"RA_OF_ASC_NODE":1.5088,"ARG_OF_PERICENTER":200.0167,"MEAN_ANOMALY":160.0576,"EPHEMERIS_TYPE":0,"CLASSIFICATION_TYPE":"U","NORAD_CAT_ID":27422,"ELEMENT_SET_NO":999,"REV_AT_EPOCH":24318,"BSTAR":0.00016835284,"MEAN_MOTION_DOT":4.0e-6,"MEAN_MOTION_DDOT":0},{"OBJECT_NAME":"AQUA","OBJECT_ID":"2002-022A","EPOCH":"2026-03-03T22:19:03.512064","MEAN_MOTION":14.6196078,"ECCENTRICITY":6.471e-5,"INCLINATION":98.4165,"RA_OF_ASC_NODE":30.1904,"ARG_OF_PERICENTER":58.3453,"MEAN_ANOMALY":333.3992,"EPHEMERIS_TYPE":0,"CLASSIFICATION_TYPE":"U","NORAD_CAT_ID":27424,"ELEMENT_SET_NO":999,"REV_AT_EPOCH":26789,"BSTAR":0.00031184974,"MEAN_MOTION_DOT":1.513e-5,"MEAN_MOTION_DDOT":0},{"OBJECT_NAME":"CZ-4B R/B","OBJECT_ID":"2002-024C","EPOCH":"2026-03-03T18:54:12.606624","MEAN_MOTION":14.14546378,"ECCENTRICITY":0.00507389,"INCLINATION":98.8851,"RA_OF_ASC_NODE":116.2238,"ARG_OF_PERICENTER":40.7911,"MEAN_ANOMALY":72.6102,"EPHEMERIS_TYPE":0,"CLASSIFICATION_TYPE":"U","NORAD_CAT_ID":27432,"ELEMENT_SET_NO":999,"REV_AT_EPOCH":22840,"BSTAR":5.8247537e-5,"MEAN_MOTION_DOT":6.9e-7,"MEAN_MOTION_DDOT":0},{"OBJECT_NAME":"MIDORI II (ADEOS-II)","OBJECT_ID":"2002-056A","EPOCH":"2026-03-03T20:28:44.456448","MEAN_MOTION":14.29279827,"ECCENTRICITY":0.00017962,"INCLINATION":98.7759,"RA_OF_ASC_NODE":21.291,"ARG_OF_PERICENTER":51.1824,"MEAN_ANOMALY":308.9517,"EPHEMERIS_TYPE":0,"CLASSIFICATION_TYPE":"U","NORAD_CAT_ID":27597,"ELEMENT_SET_NO":999,"REV_AT_EPOCH":20946,"BSTAR":0.00018321408,"MEAN_MOTION_DOT":4.21e-6,"MEAN_MOTION_DDOT":0},{"OBJECT_NAME":"H-2A R/B","OBJECT_ID":"2002-056E","EPOCH":"2026-03-03T20:05:42.403776","MEAN_MOTION":14.33756197,"ECCENTRICITY":0.00701352,"INCLINATION":98.3192,"RA_OF_ASC_NODE":23.426,"ARG_OF_PERICENTER":178.0645,"MEAN_ANOMALY":202.1846,"EPHEMERIS_TYPE":0,"CLASSIFICATION_TYPE":"U","NORAD_CAT_ID":27601,"ELEMENT_SET_NO":999,"REV_AT_EPOCH":21327,"BSTAR":0.00013821928,"MEAN_MOTION_DOT":3.53e-6,"MEAN_MOTION_DDOT":0},{"OBJECT_NAME":"CZ-4B R/B","OBJECT_ID":"2003-049C","EPOCH":"2026-03-03T14:34:05.718432","MEAN_MOTION":14.55013265,"ECCENTRICITY":0.0047056,"INCLINATION":98.6873,"RA_OF_ASC_NODE":57.2734,"ARG_OF_PERICENTER":249.8633,"MEAN_ANOMALY":109.7497,"EPHEMERIS_TYPE":0,"CLASSIFICATION_TYPE":"U","NORAD_CAT_ID":28059,"ELEMENT_SET_NO":999,"REV_AT_EPOCH":18571,"BSTAR":0.0001378,"MEAN_MOTION_DOT":5.5e-6,"MEAN_MOTION_DDOT":0},{"OBJECT_NAME":"CZ-2C R/B","OBJECT_ID":"2004-012C","EPOCH":"2026-03-03T17:21:29.700288","MEAN_MOTION":15.6369341,"ECCENTRICITY":0.00133264,"INCLINATION":97.7246,"RA_OF_ASC_NODE":127.4537,"ARG_OF_PERICENTER":333.6742,"MEAN_ANOMALY":26.3837,"EPHEMERIS_TYPE":0,"CLASSIFICATION_TYPE":"U","NORAD_CAT_ID":28222,"ELEMENT_SET_NO":999,"REV_AT_EPOCH":20334,"BSTAR":0.00073196171,"MEAN_MOTION_DOT":0.00068801,"MEAN_MOTION_DDOT":0},{"OBJECT_NAME":"SL-16 R/B","OBJECT_ID":"2004-021B","EPOCH":"2026-03-03T20:53:50.623584","MEAN_MOTION":14.14599553,"ECCENTRICITY":0.00037328,"INCLINATION":70.9992,"RA_OF_ASC_NODE":244.7047,"ARG_OF_PERICENTER":21.1238,"MEAN_ANOMALY":339.0037,"EPHEMERIS_TYPE":0,"CLASSIFICATION_TYPE":"U","NORAD_CAT_ID":28353,"ELEMENT_SET_NO":999,"REV_AT_EPOCH":12201,"BSTAR":-4.7800181e-5,"MEAN_MOTION_DOT":-1.4e-6,"MEAN_MOTION_DDOT":0},{"OBJECT_NAME":"CZ-4B R/B","OBJECT_ID":"2004-035C","EPOCH":"2026-03-03T15:02:17.422656","MEAN_MOTION":15.28932257,"ECCENTRICITY":0.0031634,"INCLINATION":97.3505,"RA_OF_ASC_NODE":96.9417,"ARG_OF_PERICENTER":353.5115,"MEAN_ANOMALY":6.5711,"EPHEMERIS_TYPE":0,"CLASSIFICATION_TYPE":"U","NORAD_CAT_ID":28415,"ELEMENT_SET_NO":999,"REV_AT_EPOCH":17898,"BSTAR":0.00038586,"MEAN_MOTION_DOT":0.00010935,"MEAN_MOTION_DDOT":0},{"OBJECT_NAME":"CZ-2C R/B","OBJECT_ID":"2004-046B","EPOCH":"2026-03-03T17:39:34.482528","MEAN_MOTION":14.26989818,"ECCENTRICITY":0.01395225,"INCLINATION":98.1987,"RA_OF_ASC_NODE":338.0901,"ARG_OF_PERICENTER":172.0058,"MEAN_ANOMALY":188.3394,"EPHEMERIS_TYPE":0,"CLASSIFICATION_TYPE":"U","NORAD_CAT_ID":28480,"ELEMENT_SET_NO":999,"REV_AT_EPOCH":10765,"BSTAR":7.2528166e-5,"MEAN_MOTION_DOT":1.55e-6,"MEAN_MOTION_DDOT":0},{"OBJECT_NAME":"ARIANE 5 R/B","OBJECT_ID":"2004-049H","EPOCH":"2026-03-03T21:45:08.359200","MEAN_MOTION":14.85253666,"ECCENTRICITY":0.0084361,"INCLINATION":98.2617,"RA_OF_ASC_NODE":231.1472,"ARG_OF_PERICENTER":10.6621,"MEAN_ANOMALY":349.6356,"EPHEMERIS_TYPE":0,"CLASSIFICATION_TYPE":"U","NORAD_CAT_ID":28499,"ELEMENT_SET_NO":999,"REV_AT_EPOCH":14493,"BSTAR":0.00013182243,"MEAN_MOTION_DOT":1.14e-5,"MEAN_MOTION_DDOT":0}]
